{"type": "FeatureCollection", "features": [{"type": "Feature", "properties": {"ref": "1", "name": "Line 1 \u2014 Versova\u2013Andheri\u2013Ghatkopar", "color": "#0057A8", "status": "open", "open_year": 2014}, "geometry": {"type": "LineString", "coordinates": [[72.818357, 19.1301147], [72.8191694, 19.1304924], [72.8192519, 19.1305269], [72.8193596, 19.1305627], [72.8194575, 19.1305882], [72.8195563, 19.1306017], [72.8196479, 19.1306046], [72.8197941, 19.1306021], [72.8199407, 19.1305912], [72.8200569, 19.1305741], [72.8204036, 19.1304969], [72.8213871, 19.1302777], [72.8213871, 19.1302777], [72.8223862, 19.130055], [72.8230796, 19.1299004], [72.8236514, 19.1297555], [72.8271582, 19.1289802], [72.8308125, 19.1281782], [72.8342244, 19.1274165], [72.8345961, 19.1273227], [72.8347788, 19.1272748], [72.8349542, 19.1272355], [72.8350222, 19.1272242], [72.8350922, 19.1272153], [72.8352482, 19.1272034], [72.8361826, 19.127189], [72.8363731, 19.1271733], [72.8365353, 19.1271564], [72.8367553, 19.127125], [72.8382668, 19.1268055], [72.838656, 19.1267232], [72.839028, 19.1266317], [72.8402494, 19.1262831], [72.8405029, 19.1261985], [72.8406653, 19.1261229], [72.8408326, 19.1260257], [72.840984, 19.1259166], [72.8411378, 19.125793], [72.841302, 19.1256355], [72.8414682, 19.1254446], [72.8415612, 19.12533], [72.8416337, 19.1252028], [72.8417054, 19.1250515], [72.8419538, 19.1244699], [72.8420259, 19.1243537], [72.8420874, 19.124279], [72.84214, 19.1242226], [72.8422076, 19.1241638], [72.8422825, 19.1240964], [72.8423657, 19.1240328], [72.8424696, 19.1239631], [72.8425903, 19.1238874], [72.8442417, 19.1231513], [72.8446111, 19.1229659], [72.8458344, 19.1223172], [72.8462263, 19.1221031], [72.8465881, 19.1218913], [72.8480194, 19.1209763], [72.8494816, 19.1200415], [72.8521688, 19.1183697], [72.8530379, 19.117839], [72.8538613, 19.1173684], [72.8548733, 19.116799], [72.8558747, 19.116215], [72.8569834, 19.1155638], [72.8570021, 19.1155524], [72.8570377, 19.115532], [72.8572112, 19.1154289], [72.8573677, 19.115355], [72.8575086, 19.1152977], [72.8576713, 19.1152403], [72.8577214, 19.1152245], [72.8578371, 19.115188], [72.8583191, 19.115078], [72.8587086, 19.1150101], [72.8588113, 19.1149923], [72.8589326, 19.1149712], [72.8591256, 19.1149492], [72.8594758, 19.1149204], [72.8602696, 19.1148558], [72.8605014, 19.1148164], [72.860682, 19.1147772], [72.8608649, 19.1147327], [72.8609979, 19.1146879], [72.8611423, 19.1146299], [72.8612793, 19.1145754], [72.8614933, 19.114482], [72.8616933, 19.1144003], [72.8618955, 19.114303], [72.8621224, 19.1141873], [72.8622899, 19.1141005], [72.8639497, 19.1131946], [72.8641933, 19.113067], [72.8643841, 19.1129751], [72.8645988, 19.1128915], [72.864809, 19.1128198], [72.8650268, 19.1127528], [72.86693, 19.112254], [72.8682423, 19.1119069], [72.8691077, 19.111678], [72.8702137, 19.1113705], [72.8718129, 19.1109381], [72.8721335, 19.1108491], [72.872406, 19.1107673], [72.8726862, 19.1106783], [72.8729714, 19.1105796], [72.8735356, 19.1103741], [72.8747968, 19.1099146], [72.874808, 19.1099102], [72.8762816, 19.1093736], [72.8767215, 19.1092223], [72.8771159, 19.109078], [72.8788735, 19.1084144], [72.8801094, 19.1079463], [72.8801211, 19.1079416], [72.8806347, 19.1077471], [72.8808424, 19.1076705], [72.8809916, 19.1076251], [72.8811551, 19.1075776], [72.8813229, 19.1075515], [72.8814895, 19.1075396], [72.8829569, 19.1074435], [72.883144, 19.1074241], [72.883301, 19.1073949], [72.8834553, 19.1073536], [72.883599, 19.1073051], [72.8837574, 19.1072429], [72.8838929, 19.1071814], [72.8840017, 19.10713], [72.8841309, 19.1070578], [72.8842501, 19.1069793], [72.8844009, 19.1068832], [72.8845414, 19.1067555], [72.8846701, 19.1066185], [72.8861639, 19.1048562], [72.8862728, 19.1047263], [72.8863792, 19.104624], [72.8865045, 19.1045175], [72.8866466, 19.1043986], [72.8868107, 19.104282], [72.8870102, 19.1041564], [72.8885094, 19.1032172], [72.8886151, 19.103151], [72.8889314, 19.102934], [72.8891482, 19.1027629], [72.8893951, 19.1025633], [72.8905732, 19.1015798], [72.8907243, 19.1014274], [72.8908595, 19.1012803], [72.8910126, 19.1011043], [72.891148, 19.1009329], [72.8912883, 19.1007401], [72.8914185, 19.1005495], [72.8928541, 19.0981392], [72.8929255, 19.0980312], [72.8930038, 19.0979202], [72.8931373, 19.0977638], [72.8932911, 19.0976151], [72.8934975, 19.0974166], [72.8936657, 19.0972661], [72.8938784, 19.0970939], [72.8943249, 19.0967939], [72.895413, 19.0960972], [72.8964321, 19.0954447], [72.896766, 19.0952496], [72.897097, 19.0950575], [72.8973436, 19.0949078], [72.8979821, 19.0945101], [72.8990463, 19.093817], [72.899191, 19.0937292], [72.899332, 19.093655], [72.8995173, 19.0935658], [72.8996774, 19.0935103], [72.89995, 19.0934256], [72.900668, 19.0932164], [72.9008238, 19.0931582], [72.9010089, 19.0930828], [72.9012117, 19.0929698], [72.9025996, 19.0921714], [72.9026594, 19.092137], [72.9029306, 19.0919909], [72.9031128, 19.0919036], [72.9039375, 19.091541], [72.9040957, 19.0914704], [72.9042145, 19.0914274], [72.9043745, 19.0913674], [72.9048768, 19.0911936], [72.9049859, 19.0911636], [72.9051074, 19.0911409], [72.9052297, 19.0911247], [72.9053473, 19.0911142], [72.9054647, 19.0911105], [72.9056236, 19.091113], [72.9057581, 19.0911213], [72.9059059, 19.0911416], [72.9066378, 19.0912391], [72.9067956, 19.0912542], [72.9069, 19.0912481], [72.9070041, 19.0912351], [72.9071276, 19.0912109], [72.9072191, 19.0911827], [72.907291, 19.0911456], [72.907377, 19.0910929], [72.9074926, 19.0910094], [72.9075499, 19.0909614], [72.9075965, 19.0909016], [72.9076496, 19.0908307], [72.9076947, 19.0907524], [72.9077465, 19.0906442], [72.9077851, 19.0905556], [72.9078129, 19.0904436], [72.9078212, 19.0903592], [72.9078312, 19.0901841], [72.9078212, 19.0900437], [72.9078032, 19.0896942], [72.9078015, 19.0896063], [72.9078075, 19.0895143], [72.9078363, 19.0894145], [72.9079467, 19.0891168], [72.9079778, 19.0890254], [72.9079971, 19.0889386], [72.9080126, 19.0888367], [72.9080172, 19.0887623], [72.9080252, 19.0884386], [72.9080358, 19.0881985], [72.9080464, 19.0879498], [72.9080708, 19.08782], [72.9081085, 19.0876599], [72.9081226, 19.086286], [72.9081226, 19.086286], [72.9081227, 19.0861848]]}}, {"type": "Feature", "properties": {"ref": "3", "name": "Line 3 Aqua \u2014 Aarey\u2013Cuffe Parade", "color": "#00AEEF", "status": "open", "open_year": 2024}, "geometry": {"type": "LineString", "coordinates": [[72.8841973, 19.1310462], [72.8790705, 19.1316548], [72.8787794, 19.131652], [72.8785655, 19.1316278], [72.8783504, 19.1315874], [72.8781559, 19.1315318], [72.8781559, 19.1315318], [72.8778774, 19.1314316], [72.8776941, 19.1313291], [72.8774338, 19.1311452], [72.8771915, 19.1309444], [72.877035, 19.1307831], [72.8744482, 19.1269287], [72.8732698, 19.1252898], [72.8729048, 19.1247923], [72.8724955, 19.1243064], [72.8715226, 19.1230285], [72.8707726, 19.1220979], [72.8706758, 19.1217036], [72.8706096, 19.1210023], [72.8703815, 19.1196368], [72.8703713, 19.1194443], [72.8704435, 19.119132], [72.8705053, 19.1189891], [72.8705998, 19.1188153], [72.8706914, 19.1187043], [72.8711351, 19.1183252], [72.8717418, 19.1179999], [72.8723189, 19.1177729], [72.8727629, 19.1176467], [72.8732669, 19.1175062], [72.8742053, 19.1172867], [72.8746151, 19.1171908], [72.875072, 19.117093], [72.8758566, 19.1168708], [72.8764455, 19.1166227], [72.8767658, 19.1163616], [72.8770875, 19.1159372], [72.877355, 19.1153644], [72.8774397, 19.1148744], [72.8775206, 19.1134569], [72.8775638, 19.1130434], [72.8776721, 19.1125837], [72.8778049, 19.1122015], [72.8781276, 19.1114027], [72.8783256, 19.1109741], [72.8784206, 19.1105344], [72.8785209, 19.1098812], [72.8785366, 19.1097481], [72.8786939, 19.1082762], [72.8787184, 19.1074346], [72.87871, 19.106953], [72.8786412, 19.10648], [72.8785509, 19.1060536], [72.8782902, 19.1050549], [72.8781302, 19.1045325], [72.8776511, 19.1036444], [72.8774334, 19.1033281], [72.8773283, 19.103152], [72.8769828, 19.10269], [72.8769112, 19.1026196], [72.876835, 19.1025537], [72.8767545, 19.1024926], [72.87667, 19.1024364], [72.8765818, 19.1023855], [72.8764868, 19.1023384], [72.8763888, 19.1022974], [72.876288, 19.1022626], [72.8761851, 19.1022342], [72.8760803, 19.1022124], [72.8759743, 19.1021972], [72.8736657, 19.1021572], [72.8717897, 19.1021313], [72.8716167, 19.1021309], [72.8713594, 19.1021302], [72.8712706, 19.10213], [72.8712386, 19.1021299], [72.8668312, 19.1020882], [72.8654423, 19.1020547], [72.8647115, 19.1020562], [72.8640142, 19.1020441], [72.8633264, 19.102074], [72.8628742, 19.1020682], [72.8619826, 19.1018994], [72.8593808, 19.100916], [72.8578627, 19.1001101], [72.8573209, 19.1000087], [72.8568327, 19.0996995], [72.8565806, 19.0994409], [72.8563875, 19.0990202], [72.8563929, 19.098787], [72.856586, 19.0979455], [72.8571278, 19.096663], [72.8571761, 19.0961561], [72.8571439, 19.0958722], [72.8570044, 19.0955377], [72.856248, 19.0950054], [72.853081, 19.0936196], [72.8525536, 19.0933915], [72.8514639, 19.0929648], [72.8502345, 19.0923846], [72.84899, 19.091391], [72.8478795, 19.0894089], [72.8470749, 19.0873709], [72.8469676, 19.0867626], [72.8470668, 19.0847063], [72.8470933, 19.084158], [72.8471607, 19.0827627], [72.8471647, 19.0799697], [72.8471387, 19.0787375], [72.8471182, 19.0777653], [72.8470456, 19.0748612], [72.847435, 19.0734143], [72.8498401, 19.0693126], [72.850601, 19.0679338], [72.8521427, 19.065032], [72.8538239, 19.0621634], [72.8549629, 19.0602338], [72.8549629, 19.0602338], [72.8560879, 19.0583279], [72.8560879, 19.0583279], [72.8565813, 19.0566481], [72.8565323, 19.0544312], [72.8560066, 19.0520988], [72.8550449, 19.05043], [72.8545653, 19.0494006], [72.8539098, 19.0485978], [72.8522397, 19.0471421], [72.8514801, 19.0466745], [72.8511124, 19.0465417], [72.8500722, 19.0463174], [72.8494228, 19.0461519], [72.8465798, 19.0454958], [72.8452039, 19.0452726], [72.8438918, 19.045104], [72.8430444, 19.0447213], [72.8423063, 19.0438329], [72.8417004, 19.042498], [72.8414862, 19.0408624], [72.8415409, 19.0398601], [72.8418121, 19.0390338], [72.8420421, 19.0383201], [72.8422516, 19.0373269], [72.8423701, 19.036115], [72.8423245, 19.0346753], [72.8421787, 19.0322698], [72.8419509, 19.0310943], [72.8415227, 19.0291352], [72.8407664, 19.025618], [72.8405021, 19.0250895], [72.8390467, 19.0233528], [72.8384064, 19.0226293], [72.837559, 19.021554], [72.8365931, 19.0200415], [72.8360828, 19.0189753], [72.8352354, 19.0171894], [72.8344427, 19.0160868], [72.8337228, 19.0156586], [72.8325929, 19.0154854], [72.8313263, 19.0157588], [72.8305616, 19.015959], [72.8293028, 19.0163008], [72.828592, 19.0163008], [72.8280453, 19.015991], [72.8272293, 19.0153885], [72.8256454, 19.0143437], [72.8239996, 19.0132572], [72.8234809, 19.0129159], [72.8221323, 19.0122325], [72.8214125, 19.0117313], [72.8208293, 19.0111846], [72.8203646, 19.010483], [72.8197723, 19.009426], [72.8192943, 19.0085959], [72.8185331, 19.0072755], [72.8167569, 19.0044308], [72.8165958, 19.0041727], [72.8162915, 19.0036854], [72.8160637, 19.0031022], [72.816062, 19.0030541], [72.8160455, 19.0025829], [72.816574, 19.0004051], [72.8177404, 18.9978264], [72.8177404, 18.9978264], [72.8179006, 18.9975323], [72.8179006, 18.9975323], [72.8194078, 18.9947648], [72.821376, 18.9909013], [72.8239001, 18.986245], [72.8247019, 18.9846504], [72.8256131, 18.9830741], [72.8262419, 18.98209], [72.826579, 18.9814795], [72.8265962, 18.9813715], [72.8266324, 18.9811438], [72.8265334, 18.9808598], [72.8259776, 18.9801309], [72.8254218, 18.9794475], [72.8242919, 18.9782356], [72.8241734, 18.9775704], [72.8238818, 18.9765043], [72.8234445, 18.9753744], [72.8227155, 18.9738254], [72.8219592, 18.9721943], [72.8215492, 18.9708093], [72.8212029, 18.9699801], [72.820474, 18.9682397], [72.8195354, 18.9665267], [72.819466, 18.9664179], [72.8190343, 18.9656883], [72.8187244, 18.9649594], [72.8183203, 18.9639448], [72.8180684, 18.9632099], [72.817713, 18.9623169], [72.8175732, 18.9619152], [72.8174834, 18.9616009], [72.8173713, 18.9609566], [72.8173105, 18.9601514], [72.8173011, 18.9600254], [72.8173364, 18.9596537], [72.8173409, 18.95948], [72.817358, 18.959322], [72.8173668, 18.9592281], [72.8173648, 18.9590103], [72.8174533, 18.9578384], [72.8177996, 18.9565718], [72.8186151, 18.9553189], [72.82113, 18.9532687], [72.8219522, 18.9524219], [72.8222346, 18.952126], [72.8225088, 18.9518295], [72.8234718, 18.9509269], [72.8246017, 18.9497332], [72.8253762, 18.9488585], [72.8262529, 18.9479139], [72.8265155, 18.9476053], [72.8267355, 18.9472635], [72.8272045, 18.9463455], [72.8276542, 18.9455873], [72.8286748, 18.9439198], [72.8290483, 18.9435188], [72.8302199, 18.9421832], [72.8308561, 18.9416186], [72.8319001, 18.9408731], [72.8337605, 18.9395601], [72.8342412, 18.9390881], [72.8344363, 18.9386721], [72.8344832, 18.9383237], [72.8342931, 18.9375418], [72.8338504, 18.9362201], [72.8338085, 18.9361453], [72.8333037, 18.9352451], [72.83252, 18.9341699], [72.8318184, 18.9331949], [72.8314813, 18.9328396], [72.8311897, 18.9326664], [72.8307979, 18.9325936], [72.8300051, 18.9326847], [72.8288205, 18.9328487], [72.8283832, 18.9327667], [72.8280551, 18.9325389], [72.8276907, 18.9322655], [72.8269617, 18.9314819], [72.8255413, 18.9297327], [72.8254954, 18.9296699], [72.8254825, 18.9296522], [72.8254825, 18.9296522], [72.8251299, 18.929226], [72.8247566, 18.928238], [72.8248659, 18.9273268], [72.8252565, 18.925498], [72.8255503, 18.9248087], [72.8264115, 18.9229317], [72.8264879, 18.9218049], [72.8258865, 18.9195087], [72.8255402, 18.9188709], [72.8245197, 18.9176316], [72.8231529, 18.916356], [72.8207486, 18.9135434], [72.8189404, 18.9114526]]}}, {"type": "Feature", "properties": {"ref": "2", "name": "Line 2 (Andheri West \u2192 Dahisar (East))", "color": "yellow", "status": "unknown", "open_year": null}, "geometry": {"type": "LineString", "coordinates": [[72.8314255, 19.12918], [72.8316066, 19.1299491], [72.8316346, 19.1300552], [72.8316548, 19.1301628], [72.831667, 19.1302714], [72.8316711, 19.130386], [72.8316663, 19.1305006], [72.8316527, 19.1306146], [72.8315952, 19.1308297], [72.8315587, 19.1309422], [72.8315297, 19.1310565], [72.8315082, 19.1311724], [72.8314944, 19.1312892], [72.831488, 19.1314222], [72.8314914, 19.1315553], [72.8315048, 19.1316879], [72.8316723, 19.132596], [72.8320965, 19.1348173], [72.8321174, 19.135053], [72.8321288, 19.1352823], [72.832124, 19.1355995], [72.831841, 19.1389099], [72.8317641, 19.1398084], [72.8316872, 19.1407214], [72.8313208, 19.1445771], [72.8313155, 19.1446944], [72.8313209, 19.1448743], [72.8313339, 19.1449765], [72.8313563, 19.1450773], [72.8313878, 19.1451758], [72.8314283, 19.1452714], [72.8314775, 19.1453633], [72.8315349, 19.1454508], [72.8316001, 19.1455333], [72.8316727, 19.1456101], [72.8317521, 19.1456807], [72.8318352, 19.1457427], [72.8319235, 19.145798], [72.8320165, 19.1458459], [72.8321134, 19.1458863], [72.8322136, 19.1459188], [72.8323164, 19.1459432], [72.8324209, 19.1459593], [72.8325266, 19.145967], [72.8339507, 19.1460554], [72.8344148, 19.1460842], [72.8356271, 19.146212], [72.8357229, 19.1462356], [72.8358163, 19.1462669], [72.8359065, 19.1463056], [72.8359929, 19.1463515], [72.8360747, 19.1464042], [72.8361515, 19.1464633], [72.8362226, 19.1465285], [72.8362876, 19.1465991], [72.8363459, 19.1466748], [72.8363971, 19.1467549], [72.836439, 19.1468349], [72.8364738, 19.1469178], [72.8365013, 19.1470031], [72.8365213, 19.1470903], [72.8365338, 19.1471787], [72.8365385, 19.1472678], [72.8365355, 19.1473569], [72.8365043, 19.147626], [72.8356937, 19.1530229], [72.8355347, 19.1540327], [72.8352624, 19.1558196], [72.8352402, 19.156067], [72.8352335, 19.1563447], [72.8352436, 19.1569794], [72.8352971, 19.1587651], [72.83528, 19.159015], [72.8352307, 19.1593017], [72.8351624, 19.1596017], [72.8349813, 19.1602718], [72.8349547, 19.1603954], [72.8349111, 19.1606489], [72.8348798, 19.160906], [72.8348514, 19.1612204], [72.8348483, 19.1614829], [72.8348362, 19.162872], [72.8348748, 19.1633565], [72.8349539, 19.1645037], [72.8351596, 19.167264], [72.8353559, 19.1697604], [72.8353957, 19.1700936], [72.8354497, 19.1703417], [72.8355522, 19.1706678], [72.8357722, 19.1713369], [72.8360898, 19.172186], [72.836453, 19.1731074], [72.8367129, 19.1737974], [72.8368987, 19.174264], [72.8370761, 19.1747988], [72.8371775, 19.1752537], [72.837207, 19.175673], [72.8372043, 19.1759745], [72.8371601, 19.1763608], [72.8370407, 19.1770714], [72.8366317, 19.1794857], [72.8365445, 19.1799126], [72.8364466, 19.1802445], [72.836291, 19.1807005], [72.8362074, 19.1809458], [72.8361249, 19.1812396], [72.8360633, 19.1815271], [72.8360083, 19.1819436], [72.8359419, 19.1823851], [72.8358935, 19.1828831], [72.8358812, 19.1831957], [72.835866, 19.1844594], [72.835833, 19.1852856], [72.8358217, 19.1861749], [72.8357895, 19.1874985], [72.8357613, 19.187753], [72.8357103, 19.1881748], [72.8356176, 19.1887647], [72.8355171, 19.1892994], [72.8354014, 19.189783], [72.8348665, 19.1918931], [72.8347126, 19.1924166], [72.8344199, 19.1932159], [72.8340425, 19.1941294], [72.8338964, 19.1945091], [72.8338281, 19.1947482], [72.8337798, 19.1949972], [72.8337403, 19.1952626], [72.8337222, 19.1954829], [72.8337242, 19.1957369], [72.8337302, 19.1960592], [72.8337902, 19.1968248], [72.8338623, 19.19775], [72.8339116, 19.1985313], [72.8339414, 19.1993129], [72.8339468, 19.1999528], [72.8339468, 19.1999528], [72.8339859, 19.2016401], [72.83399, 19.2018536], [72.8339993, 19.2021515], [72.83402, 19.2024423], [72.8340552, 19.2027322], [72.8340906, 19.2029538], [72.8341257, 19.203157], [72.8341855, 19.2036258], [72.8342677, 19.2040093], [72.8343077, 19.2042556], [72.8345236, 19.2050493], [72.8345829, 19.2053147], [72.8347765, 19.2062112], [72.8348968, 19.2069859], [72.8350501, 19.2082969], [72.835067, 19.2084266], [72.8352686, 19.2099265], [72.8353715, 19.2103391], [72.8354905, 19.2107466], [72.8362013, 19.2123321], [72.8364392, 19.2127885], [72.8370423, 19.2136931], [72.8372919, 19.2140139], [72.837966, 19.2147771], [72.839231, 19.2160648], [72.8398944, 19.2170846], [72.8403603, 19.2180802], [72.8405297, 19.2186452], [72.8408757, 19.2204873], [72.8409065, 19.2208525], [72.8409304, 19.2214385], [72.8409195, 19.2228316], [72.8408892, 19.2237559], [72.8408403, 19.2249048], [72.8408455, 19.2259703], [72.8409213, 19.2281687], [72.8409964, 19.2296048], [72.8410001, 19.2299211], [72.8408398, 19.2313901], [72.8408398, 19.2313901], [72.8406633, 19.2332131], [72.8405711, 19.2343919], [72.840553, 19.2347896], [72.8405741, 19.2351757], [72.8406484, 19.2357523], [72.8407277, 19.2361942], [72.8408174, 19.2365105], [72.8409068, 19.2367676], [72.8411054, 19.2372383], [72.8416525, 19.2382307], [72.8417263, 19.2383622], [72.8418049, 19.2384918], [72.8418879, 19.2386191], [72.8419931, 19.2387681], [72.8421044, 19.2389132], [72.842221, 19.2390535], [72.8423915, 19.2392591], [72.8428509, 19.2397456], [72.8430535, 19.2399597], [72.8434822, 19.2404402], [72.8440593, 19.2410411], [72.8444542, 19.241498], [72.8449116, 19.2422918], [72.8451165, 19.2428897], [72.8453689, 19.2438298], [72.8454104, 19.2441255], [72.8454317, 19.2445729], [72.8454135, 19.2455362], [72.8453588, 19.2461832], [72.8453224, 19.2468666], [72.8453497, 19.2475226], [72.8455535, 19.248775], [72.8457144, 19.2495828], [72.845791, 19.2498866], [72.8459682, 19.2504483], [72.8462245, 19.251213], [72.8465612, 19.2518879], [72.8467439, 19.2522426], [72.8473244, 19.2532185], [72.8475841, 19.2536045], [72.8484658, 19.2547319], [72.8487723, 19.2550622], [72.8491585, 19.2554136], [72.8500006, 19.2561377], [72.8506245, 19.2566384], [72.8509142, 19.2568549], [72.8520031, 19.2575794], [72.8522442, 19.2577271], [72.8525369, 19.2578754], [72.8536801, 19.2583454], [72.8542359, 19.2585242], [72.8546736, 19.2586421], [72.8551614, 19.2587135], [72.8556331, 19.2587545], [72.8563264, 19.2587543], [72.8570198, 19.2587135], [72.8573927, 19.2586754], [72.8578085, 19.2586105], [72.8582007, 19.2585441], [72.8590454, 19.2584716], [72.8621291, 19.2582029], [72.8625033, 19.2581492], [72.8628509, 19.2580766], [72.8631528, 19.2580116], [72.8641642, 19.2577484], [72.8651496, 19.2575258], [72.8655754, 19.2574178], [72.8660022, 19.2572888], [72.8664341, 19.2571579], [72.8668836, 19.2569941], [72.867289, 19.2568055], [72.8681191, 19.2564051], [72.8684429, 19.256196], [72.8686971, 19.2559669], [72.8689483, 19.2556757], [72.8690663, 19.2554301], [72.869149, 19.2550985], [72.8691642, 19.2547604], [72.8691284, 19.2543887], [72.8690207, 19.2540602], [72.868857, 19.2537558], [72.8686395, 19.2534338], [72.8673639, 19.2515609]]}}, {"type": "Feature", "properties": {"ref": "7", "name": "Line 7 \u2014 Andheri E\u2013Dahisar E", "color": "#E4002B", "status": "open", "open_year": 2022}, "geometry": {"type": "LineString", "coordinates": [[72.855104, 19.1136769], [72.8552463, 19.1145004], [72.8553696, 19.1153381], [72.8553321, 19.1153437], [72.8550666, 19.1136825], [72.855104, 19.1136769], [72.8590021, 19.1702373], [72.8588104, 19.1685326], [72.858749, 19.1685387], [72.8589407, 19.1702434], [72.8590021, 19.1702373], [72.8551766, 19.1145088], [72.8554291, 19.1162422], [72.8555233, 19.1169712], [72.8557013, 19.1182062], [72.8559226, 19.1194106], [72.8559759, 19.1198649], [72.8560369, 19.1206113], [72.856096, 19.1210859], [72.8561817, 19.1215249], [72.8565703, 19.1231274], [72.856653, 19.1235529], [72.8566745, 19.1238089], [72.8566703, 19.1240723], [72.8566402, 19.1244878], [72.8565653, 19.1248537], [72.8564198, 19.1251983], [72.8564094, 19.1252229], [72.8561945, 19.1255843], [72.8557528, 19.1263449], [72.8556845, 19.126496], [72.855614, 19.1267044], [72.8555091, 19.1272049], [72.8554755, 19.1276679], [72.8554647, 19.1284481], [72.8554353, 19.1294812], [72.8551397, 19.1363841], [72.8550832, 19.1371148], [72.8549147, 19.1380709], [72.8548289, 19.1385255], [72.8547178, 19.1405768], [72.8547108, 19.1410227], [72.8547512, 19.1414028], [72.8548369, 19.1417602], [72.8552066, 19.1429335], [72.8556669, 19.1444196], [72.8558148, 19.144951], [72.8559177, 19.1457296], [72.8561849, 19.1486408], [72.8565398, 19.1514468], [72.8566221, 19.1524116], [72.8567626, 19.1542884], [72.8569608, 19.1554728], [72.8572184, 19.1573558], [72.8574308, 19.1589351], [72.8576429, 19.1606558], [72.8584903, 19.1665492], [72.8584903, 19.1665492], [72.8586085, 19.16755], [72.8588365, 19.1695334], [72.8588365, 19.1695334], [72.859033, 19.1712779], [72.8592987, 19.1740348], [72.8593026, 19.174336], [72.8593017, 19.1745457], [72.8592725, 19.1749633], [72.8592078, 19.1754197], [72.859088, 19.1758398], [72.8585026, 19.1776233], [72.8583948, 19.1780535], [72.8583535, 19.1783885], [72.8583408, 19.1787335], [72.8583213, 19.1797568], [72.8582899, 19.1808574], [72.8583697, 19.1819443], [72.8583859, 19.184106], [72.8584305, 19.1844904], [72.8585118, 19.1851071], [72.8585359, 19.1854111], [72.85854, 19.1871009], [72.8585292, 19.1883441], [72.8585252, 19.1887626], [72.8584877, 19.1891375], [72.8583469, 19.1898559], [72.8583162, 19.1902222], [72.8583063, 19.1910488], [72.8583322, 19.1913895], [72.8584341, 19.1917391], [72.8586056, 19.1920535], [72.8591977, 19.1930963], [72.859397, 19.1934388], [72.8595794, 19.1937985], [72.8598446, 19.1944922], [72.8606474, 19.1983142], [72.8608106, 19.1990814], [72.8610277, 19.199892], [72.8614029, 19.2009289], [72.8616339, 19.2014781], [72.8618844, 19.2019484], [72.8622267, 19.2024958], [72.8625707, 19.2029735], [72.8633393, 19.2037581], [72.8666944, 19.2072183], [72.8671927, 19.2078429], [72.867663, 19.2085439], [72.868049, 19.2093126], [72.8682638, 19.2100434], [72.8683764, 19.2108944], [72.8683615, 19.2118434], [72.8682865, 19.2124491], [72.868147, 19.2130642], [72.8667972, 19.2171256], [72.8664369, 19.2181632], [72.8652862, 19.2211098], [72.8642266, 19.2243417], [72.8635235, 19.2263612], [72.863356, 19.2269061], [72.8632398, 19.2275224], [72.8632217, 19.2278256], [72.8631805, 19.2337729], [72.8631591, 19.2346163], [72.8631532, 19.235567], [72.8631657, 19.2360531], [72.863207, 19.2365146], [72.8637988, 19.2402399], [72.8639684, 19.2413299], [72.8640194, 19.2419048], [72.8641293, 19.2424688], [72.8641964, 19.2429398], [72.8645155, 19.2453644], [72.8646146, 19.2460474], [72.8646428, 19.2462076], [72.8647475, 19.2468916], [72.8647888, 19.2471294], [72.864843, 19.2473934], [72.8649068, 19.2476371], [72.8649832, 19.2478714], [72.865071, 19.2481164], [72.8652139, 19.2484373], [72.865411, 19.2488285], [72.8656021, 19.249115], [72.8666591, 19.2506163]]}}, {"type": "Feature", "properties": {"ref": "N1", "name": "Navi Mumbai Metro Line 1", "color": "#77248B", "status": "under_construction", "open_year": 2025}, "geometry": {"type": "LineString", "coordinates": [[73.0983198, 19.0718613], [73.0978325, 19.0721921], [73.0967934, 19.0728874], [73.0965281, 19.0730661], [73.0962541, 19.0732195], [73.0959784, 19.0733177], [73.09553, 19.0733582], [73.0953561, 19.0733708], [73.0931537, 19.0735378], [73.0925539, 19.0735837], [73.0921435, 19.0736227], [73.0919185, 19.0736793], [73.0917763, 19.0737367], [73.0915629, 19.0738554], [73.0913384, 19.0740378], [73.0909849, 19.0743251], [73.0906422, 19.0746038], [73.0903003, 19.074898], [73.0900243, 19.0751458], [73.0897702, 19.075361], [73.0894908, 19.0755949], [73.0893565, 19.0757048], [73.0892308, 19.0758031], [73.0891055, 19.0758917], [73.0890046, 19.0759621], [73.0888387, 19.0760451], [73.0887064, 19.0760954], [73.0885714, 19.0761354], [73.0884374, 19.0761627], [73.0883208, 19.0761706], [73.088223, 19.0761718], [73.0881294, 19.0761682], [73.0880426, 19.0761596], [73.0879856, 19.0761505], [73.0879284, 19.0761369], [73.0878374, 19.0761122], [73.0877068, 19.0760685], [73.087588, 19.0760148], [73.0873959, 19.0759069], [73.0860949, 19.0749286], [73.0847278, 19.0738725], [73.0844621, 19.0736923], [73.0841708, 19.0735589], [73.0839948, 19.0734875], [73.0837886, 19.0734302], [73.0835786, 19.0734027], [73.0833713, 19.0734027], [73.0831702, 19.0734156], [73.0829791, 19.0734466], [73.0818604, 19.0736458], [73.0807389, 19.0738752], [73.0804731, 19.0739071], [73.0802331, 19.0739027], [73.0800136, 19.0738636], [73.079803, 19.0737951], [73.0796241, 19.073696], [73.0794588, 19.0735755], [73.0793307, 19.0734651], [73.0792209, 19.0733372], [73.0791533, 19.0732437], [73.0791052, 19.0731445], [73.0790323, 19.072944], [73.0788955, 19.0724833], [73.0784531, 19.0709032], [73.0781956, 19.0697349], [73.0781637, 19.0695316], [73.0780892, 19.0690698], [73.0778476, 19.0671456], [73.0773935, 19.0638698], [73.0764148, 19.0564318], [73.0760287, 19.0536741], [73.0758977, 19.0527265], [73.0753233, 19.0479134], [73.075285, 19.0475817], [73.075255, 19.0472599], [73.0751999, 19.0466102], [73.0751375, 19.0458401], [73.0751057, 19.0455365], [73.0750633, 19.0452588], [73.0750144, 19.0449807], [73.0749426, 19.044701], [73.0748397, 19.0444227], [73.0743813, 19.0432122], [73.0740562, 19.0423979], [73.0739118, 19.0420256], [73.0738142, 19.0418612], [73.0736915, 19.0417028], [73.0735161, 19.0415524], [73.0733157, 19.0414388], [73.0730861, 19.0413647], [73.072857, 19.0413276], [73.0724431, 19.0413121], [73.0703548, 19.0412528], [73.069879, 19.0412765], [73.0693837, 19.0412661], [73.0691779, 19.0412447], [73.0690026, 19.0412011], [73.0688594, 19.0411567], [73.0687377, 19.0410953], [73.0685799, 19.040987], [73.0683568, 19.0407644], [73.0660253, 19.0378984], [73.0657405, 19.0376631], [73.0655606, 19.0375733], [73.0653915, 19.0375166], [73.0651719, 19.0374774], [73.064913, 19.0374796], [73.0640843, 19.0376457], [73.0634187, 19.0377883], [73.0631919, 19.0378215], [73.0629837, 19.0378248], [73.0628506, 19.0377995], [73.0627152, 19.0377536], [73.0625941, 19.0376994], [73.0624759, 19.0376393], [73.0623631, 19.0375549], [73.0622356, 19.0374384], [73.061287, 19.0362489], [73.0609037, 19.0357697], [73.0605706, 19.0352269], [73.0599013, 19.0340145], [73.0593713, 19.0332118], [73.0589788, 19.0325879], [73.0583842, 19.0317588], [73.0580716, 19.0312231], [73.0579169, 19.0308531], [73.0577661, 19.0304715], [73.057714, 19.0302874], [73.0575924, 19.0298033], [73.0570685, 19.0273292], [73.056992, 19.0269765], [73.0568947, 19.0267594], [73.0567874, 19.0265921], [73.0566134, 19.0264125], [73.0549511, 19.0252625], [73.0534041, 19.024225], [73.0506481, 19.0229522], [73.0505371, 19.0229052], [73.0504236, 19.022864], [73.0503078, 19.0228288], [73.0501902, 19.0227996], [73.0500652, 19.0227756], [73.0499388, 19.0227585], [73.0498117, 19.0227483], [73.0496841, 19.022745], [73.0487157, 19.022858], [73.0479398, 19.0229607], [73.046816, 19.0231315], [73.0456111, 19.0233712], [73.0453486, 19.0234082], [73.0451383, 19.023397], [73.0449558, 19.0233652], [73.0446879, 19.0232681], [73.0445491, 19.023184], [73.0435735, 19.0224745], [73.0425205, 19.0218693], [73.0421091, 19.0216359], [73.0413294, 19.0211016], [73.0408519, 19.0208211], [73.040306, 19.0205289], [73.0396535, 19.0201795]]}}, {"type": "Feature", "properties": {"ref": "2B", "name": "Line 2B \u2014 D N Nagar\u2013Mandale", "color": "#F7C300", "status": "partial", "open_year": 2024}, "geometry": {"type": "LineString", "coordinates": [[72.9386483, 19.0495336], [72.9380991, 19.0499678], [72.9379755, 19.0500756], [72.9379755, 19.0500756], [72.9377085, 19.0503078], [72.9374579, 19.0505066], [72.9372397, 19.050638], [72.937071, 19.0507056], [72.9369425, 19.0507346], [72.9367906, 19.0507542], [72.9366621, 19.0507495], [72.9365096, 19.0507361], [72.936358, 19.0507022], [72.9359204, 19.0505497], [72.9349285, 19.0501947], [72.9346873, 19.0501251], [72.9344034, 19.0500727], [72.9340786, 19.0500441], [72.9337914, 19.0500318], [72.9335872, 19.0500077], [72.9333692, 19.0499654], [72.9331577, 19.0498968], [72.9328022, 19.0497669], [72.9319967, 19.0494708], [72.9319967, 19.0494708], [72.9311621, 19.0491673], [72.9303207, 19.0488687], [72.9303207, 19.0488687], [72.9297177, 19.0486531], [72.9292094, 19.0484104], [72.9289206, 19.0482029], [72.9283275, 19.0476916], [72.9270646, 19.0466233], [72.9263185, 19.0459944], [72.9242125, 19.0441324], [72.9234691, 19.0435881], [72.923198, 19.0434776], [72.9228976, 19.0434317], [72.9222546, 19.0434958], [72.9196855, 19.0441883], [72.9183716, 19.0445486], [72.9183716, 19.0445486], [72.918155, 19.04461], [72.9175171, 19.0448044], [72.9166802, 19.045062], [72.9166802, 19.045062], [72.9163529, 19.0451626], [72.9149973, 19.0454184], [72.9140555, 19.045581], [72.9130245, 19.0456234], [72.9117669, 19.0456872], [72.9106773, 19.0457145], [72.910319, 19.0457044], [72.9100495, 19.0457149], [72.9098515, 19.0457485], [72.9091656, 19.0459788], [72.9087556, 19.0462385], [72.9078768, 19.0470581], [72.9075712, 19.0473484], [72.9075712, 19.0473484], [72.9064916, 19.0483808], [72.906372, 19.0484972], [72.906372, 19.0484972], [72.906022, 19.048849], [72.9052748, 19.0496281], [72.9041915, 19.0506744], [72.9038006, 19.0509506], [72.9032585, 19.0511945], [72.9026698, 19.051412], [72.9026698, 19.051412], [72.9017985, 19.0517138]]}}, {"type": "Feature", "properties": {"ref": "9", "name": "Line 9 \u2014 Kashigaon\u2013Dahisar E", "color": "#E4002B", "status": "planned", "open_year": 2027}, "geometry": {"type": "LineString", "coordinates": [[72.8802725, 19.2776864], [72.8809461, 19.2771836], [72.8809461, 19.2771836], [72.8813183, 19.2768532], [72.8815582, 19.2766311], [72.8817378, 19.2763969], [72.8818493, 19.2761835], [72.8819171, 19.275935], [72.8819544, 19.2757132], [72.8819826, 19.2754572], [72.8820793, 19.2744619], [72.8821162, 19.2742259], [72.8821757, 19.2739832], [72.8823026, 19.2736829], [72.8824402, 19.2733778], [72.8825172, 19.2731784], [72.8825549, 19.2730253], [72.882575, 19.2728457], [72.882562, 19.2726589], [72.8824968, 19.2724423], [72.8823929, 19.272267], [72.8822051, 19.272065], [72.8820155, 19.2719103], [72.8814054, 19.2714787], [72.8813469, 19.2714374], [72.8813469, 19.2714374], [72.8806852, 19.2709805], [72.8799223, 19.2704438], [72.8799223, 19.2704438], [72.8799025, 19.2704293], [72.878978, 19.2697522], [72.8786754, 19.2694853], [72.878397, 19.2692082], [72.8779986, 19.2687007], [72.8776151, 19.2681818], [72.8770338, 19.2672926], [72.8765881, 19.2667018], [72.8754076, 19.2652075], [72.8745565, 19.2641303], [72.8743273, 19.2637987], [72.8741049, 19.2634607], [72.8739139, 19.2631107], [72.8736861, 19.26257], [72.8733304, 19.2616625], [72.8731372, 19.2612272], [72.8728482, 19.2605471], [72.8728482, 19.2605471], [72.8726532, 19.2600826], [72.872181, 19.2589753], [72.872181, 19.2589753], [72.8719334, 19.2583451], [72.8714372, 19.2572052], [72.8711289, 19.2565132], [72.8709972, 19.2562728], [72.8708575, 19.25603], [72.8696512, 19.2542291], [72.8679154, 19.251693], [72.8679154, 19.251693], [72.8673967, 19.2509515]]}}]}